[
    {
        "Altitude(m)": 617719.7741903269,
        "Argument of Periapsis(deg)": 0.0,
        "Eccentricity": 0.0,
        "Inclination(deg)": 60.0,
        "Latitude(deg)": -41.10264889649605,
        "Longitude(deg)": -19.905285899001164,
        "Mean Anomaly(deg)": -130.9091,
        "RAAN(deg)": 229.99999999999997,
        "Satellite Name": "Test1 1026",
        "Satellite Number": 1026,
        "Semi-Major Axis(m)": 6980739.136638005,
        "Time(s)": 0
    },
    {
        "Altitude(m)": 617911.3098498064,
        "Argument of Periapsis(deg)": 0.00010418945913296404,
        "Eccentricity": 0.0,
        "Inclination(deg)": 60.0,
        "Latitude(deg)": -41.56584018948738,
        "Longitude(deg)": -19.40087818258147,
        "Mean Anomaly(deg)": -130.28899385453815,
        "RAAN(deg)": 229.99957995086024,
        "Satellite Name": "Test1 1026",
        "Satellite Number": 1026,
        "Semi-Major Axis(m)": 6980739.136638005,
        "Time(s)": 10
    },
    {
        "Altitude(m)": 618101.7202767715,
        "Argument of Periapsis(deg)": 0.0002083789182659281,
        "Eccentricity": 0.0,
        "Inclination(deg)": 60.0,
        "Latitude(deg)": -42.02635296708234,
        "Longitude(deg)": -18.888663075435858,
        "Mean Anomaly(deg)": -129.6688877090763,
        "RAAN(deg)": 229.99915990172047,
        "Satellite Name": "Test1 1026",
        "Satellite Number": 1026,
        "Semi-Major Axis(m)": 6980739.136638005,
        "Time(s)": 20
    },
    {
        "Altitude(m)": 618290.9324440233,
        "Argument of Periapsis(deg)": 0.00031256837739889213,
        "Eccentricity": 0.0,
        "Inclination(deg)": 60.0,
        "Latitude(deg)": -42.48410698228086,
        "Longitude(deg)": -18.368445892696496,
        "Mean Anomaly(deg)": -129.0487815636145,
        "RAAN(deg)": 229.99873985258077,
        "Satellite Name": "Test1 1026",
        "Satellite Number": 1026,
        "Semi-Major Axis(m)": 6980739.136638005,
        "Time(s)": 30
    },
    {
        "Altitude(m)": 618478.8737015774,
        "Argument of Periapsis(deg)": 0.0004167578365318562,
        "Eccentricity": 0.0,
        "Inclination(deg)": 60.0,
        "Latitude(deg)": -42.93901946302691,
        "Longitude(deg)": -17.84002815587713,
        "Mean Anomaly(deg)": -128.42867541815264,
        "RAAN(deg)": 229.998319803441,
        "Satellite Name": "Test1 1026",
        "Satellite Number": 1026,
        "Semi-Major Axis(m)": 6980739.136638005,
        "Time(s)": 40
    },
    {
        "Altitude(m)": 618665.4718083184,
        "Argument of Periapsis(deg)": 0.0005209472956648203,
        "Eccentricity": 0.0,
        "Inclination(deg)": 60.0,
        "Latitude(deg)": -43.391005034097766,
        "Longitude(deg)": -17.3032086907937,
        "Mean Anomaly(deg)": -127.80856927269079,
        "RAAN(deg)": 229.99789975430127,
        "Satellite Name": "Test1 1026",
        "Satellite Number": 1026,
        "Semi-Major Axis(m)": 6980739.136638005,
        "Time(s)": 50
    },
    {
        "Altitude(m)": 618850.6549634566,
        "Argument of Periapsis(deg)": 0.0006251367547977843,
        "Eccentricity": 0.0,
        "Inclination(deg)": 60.0,
        "Latitude(deg)": -43.83997563835014,
        "Longitude(deg)": -16.757783232362428,
        "Mean Anomaly(deg)": -127.18846312722893,
        "RAAN(deg)": 229.9974797051615,
        "Satellite Name": "Test1 1026",
        "Satellite Number": 1026,
        "Semi-Major Axis(m)": 6980739.136638005,
        "Time(s)": 60
    },
    {
        "Altitude(m)": 619034.351837754,
        "Argument of Periapsis(deg)": 0.0007293262139307483,
        "Eccentricity": 0.0,
        "Inclination(deg)": 60.0,
        "Latitude(deg)": -44.28584045755733,
        "Longitude(deg)": -16.203544051015033,
        "Mean Anomaly(deg)": -126.56835698176714,
        "RAAN(deg)": 229.9970596560218,
        "Satellite Name": "Test1 1026",
        "Satellite Number": 1026,
        "Semi-Major Axis(m)": 6980739.136638005,
        "Time(s)": 70
    },
    {
        "Altitude(m)": 619216.4916045356,
        "Argument of Periapsis(deg)": 0.0008335156730637124,
        "Eccentricity": 0.0,
        "Inclination(deg)": 60.0,
        "Latitude(deg)": -44.72850583310662,
        "Longitude(deg)": -15.640281115592733,
        "Mean Anomaly(deg)": -125.94825083630528,
        "RAAN(deg)": 229.99663960688204,
        "Satellite Name": "Test1 1026",
        "Satellite Number": 1026,
        "Semi-Major Axis(m)": 6980739.136638005,
        "Time(s)": 80
    },
    {
        "Altitude(m)": 619397.0039704668,
        "Argument of Periapsis(deg)": 0.0009377051321966765,
        "Eccentricity": 0.0,
        "Inclination(deg)": 60.0,
        "Latitude(deg)": -45.167875186853266,
        "Longitude(deg)": -15.067781769075461,
        "Mean Anomaly(deg)": -125.32814469084353,
        "RAAN(deg)": 229.9962195577423,
        "Satellite Name": "Test1 1026",
        "Satellite Number": 1026,
        "Semi-Major Axis(m)": 6980739.136638005,
        "Time(s)": 90
    },
    {
        "Altitude(m)": 619575.8192060296,
        "Argument of Periapsis(deg)": 0.0010418945913296407,
        "Eccentricity": 0.0,
        "Inclination(deg)": 60.0,
        "Latitude(deg)": -45.603848942477335,
        "Longitude(deg)": -14.485830432245036,
        "Mean Anomaly(deg)": -124.70803854538167,
        "RAAN(deg)": 229.99579950860254,
        "Satellite Name": "Test1 1026",
        "Satellite Number": 1026,
        "Semi-Major Axis(m)": 6980739.136638005,
        "Time(s)": 100
    },
    {
        "Altitude(m)": 619752.868175788,
        "Argument of Periapsis(deg)": 0.0011460840504626045,
        "Eccentricity": 0.0,
        "Inclination(deg)": 60.0,
        "Latitude(deg)": -46.03632444772898,
        "Longitude(deg)": -13.89420985050167,
        "Mean Anomaly(deg)": -124.08793239991978,
        "RAAN(deg)": 229.99537945946284,
        "Satellite Name": "Test1 1026",
        "Satellite Number": 1026,
        "Semi-Major Axis(m)": 6980739.136638005,
        "Time(s)": 110
    },
    {
        "Altitude(m)": 619928.0823683202,
        "Argument of Periapsis(deg)": 0.0012502735095955685,
        "Eccentricity": 0.0,
        "Inclination(deg)": 60.0,
        "Latitude(deg)": -46.46519589799065,
        "Longitude(deg)": -13.29270086053946,
        "Mean Anomaly(deg)": -123.46782625445802,
        "RAAN(deg)": 229.99495941032308,
        "Satellite Name": "Test1 1026",
        "Satellite Number": 1026,
        "Semi-Major Axis(m)": 6980739.136638005,
        "Time(s)": 120
    },
    {
        "Altitude(m)": 620101.393925892,
        "Argument of Periapsis(deg)": 0.0013544629687285324,
        "Eccentricity": 0.0,
        "Inclination(deg)": 60.0,
        "Latitude(deg)": -46.89035426163894,
        "Longitude(deg)": -12.681082192319257,
        "Mean Anomaly(deg)": -122.84772010899617,
        "RAAN(deg)": 229.99453936118334,
        "Satellite Name": "Test1 1026",
        "Satellite Number": 1026,
        "Semi-Major Axis(m)": 6980739.136638005,
        "Time(s)": 130
    },
    {
        "Altitude(m)": 620272.7356738045,
        "Argument of Periapsis(deg)": 0.0014586524278614966,
        "Eccentricity": 0.0,
        "Inclination(deg)": 60.0,
        "Latitude(deg)": -47.31168720774362,
        "Longitude(deg)": -12.05913182187881,
        "Mean Anomaly(deg)": -122.22761396353442,
        "RAAN(deg)": 229.99411931204358,
        "Satellite Name": "Test1 1026",
        "Satellite Number": 1026,
        "Semi-Major Axis(m)": 6980739.136638005,
        "Time(s)": 140
    },
    {
        "Altitude(m)": 620442.0411494224,
        "Argument of Periapsis(deg)": 0.0015628418869944607,
        "Eccentricity": 0.0,
        "Inclination(deg)": 60.0,
        "Latitude(deg)": -47.72907903669245,
        "Longitude(deg)": -11.426626851976868,
        "Mean Anomaly(deg)": -121.60750781807252,
        "RAAN(deg)": 229.99369926290387,
        "Satellite Name": "Test1 1026",
        "Satellite Number": 1026,
        "Semi-Major Axis(m)": 6980739.136638005,
        "Time(s)": 150
    },
    {
        "Altitude(m)": 620609.2446308897,
        "Argument of Periapsis(deg)": 0.0016670313461274247,
        "Eccentricity": 0.0,
        "Inclination(deg)": 60.0,
        "Latitude(deg)": -48.142410614393945,
        "Longitude(deg)": -10.783343436274855,
        "Mean Anomaly(deg)": -120.98740167261076,
        "RAAN(deg)": 229.99327921376414,
        "Satellite Name": "Test1 1026",
        "Satellite Number": 1026,
        "Semi-Major Axis(m)": 6980739.136638005,
        "Time(s)": 160
    },
    {
        "Altitude(m)": 620774.2811654657,
        "Argument of Periapsis(deg)": 0.0017712208052603888,
        "Eccentricity": 0.0,
        "Inclination(deg)": 60.0,
        "Latitude(deg)": -48.551559310781705,
        "Longitude(deg)": -10.129058262795663,
        "Mean Anomaly(deg)": -120.36729552714891,
        "RAAN(deg)": 229.99285916462438,
        "Satellite Name": "Test1 1026",
        "Satellite Number": 1026,
        "Semi-Major Axis(m)": 6980739.136638005,
        "Time(s)": 170
    },
    {
        "Altitude(m)": 620937.0865975519,
        "Argument of Periapsis(deg)": 0.001875410264393353,
        "Eccentricity": 0.0,
        "Inclination(deg)": 60.0,
        "Latitude(deg)": -48.95639894339465,
        "Longitude(deg)": -9.463548573825292,
        "Mean Anomaly(deg)": -119.74718938168705,
        "RAAN(deg)": 229.99243911548461,
        "Satellite Name": "Test1 1026",
        "Satellite Number": 1026,
        "Semi-Major Axis(m)": 6980739.136638005,
        "Time(s)": 180
    },
    {
        "Altitude(m)": 621097.5975963172,
        "Argument of Periapsis(deg)": 0.0019795997235263173,
        "Eccentricity": 0.0,
        "Inclination(deg)": 60.0,
        "Latitude(deg)": -49.356799726893414,
        "Longitude(deg)": -8.786592238027506,
        "Mean Anomaly(deg)": -119.12708323622526,
        "RAAN(deg)": 229.9920190663449,
        "Satellite Name": "Test1 1026",
        "Satellite Number": 1026,
        "Semi-Major Axis(m)": 6980739.136638005,
        "Time(s)": 190
    }
]